[{"OBJECT_NAME":"SITRO-AIS 8 (ANOKHIN)","OBJECT_ID":"2023-091AD","EPOCH":"2026-03-09T23:44:40.058592","MEAN_MOTION":15.29359179,"ECCENTRICITY":0.0012509,"INCLINATION":97.5169,"RA_OF_ASC_NODE":133.2823,"ARG_OF_PERICENTER":92.0171,"MEAN_ANOMALY":268.2501,"EPHEMERIS_TYPE":0,"CLASSIFICATION_TYPE":"U","NORAD_CAT_ID":57193,"ELEMENT_SET_NO":999,"REV_AT_EPOCH":14927,"BSTAR":0.00064982524,"MEAN_MOTION_DOT":0.00018494,"MEAN_MOTION_DDOT":0},{"OBJECT_NAME":"STARLINK-31876","OBJECT_ID":"2024-106S","EPOCH":"2026-03-08T02:51:52.494048","MEAN_MOTION":15.27583006,"ECCENTRICITY":7.171e-5,"INCLINATION":43.0018,"RA_OF_ASC_NODE":341.3059,"ARG_OF_PERICENTER":275.318,"MEAN_ANOMALY":84.759,"EPHEMERIS_TYPE":0,"CLASSIFICATION_TYPE":"U","NORAD_CAT_ID":59938,"ELEMENT_SET_NO":999,"REV_AT_EPOCH":10029,"BSTAR":0.00020707775,"MEAN_MOTION_DOT":5.441e-5,"MEAN_MOTION_DDOT":0}]
